STARLINK-31431          
1 59002U 24036E   26068.32051988 -.00000054  00000+0  10312-4 0  9999
2 59002  53.1602  80.0625 0001005  85.4034 274.7081 15.30193239115266
TEVEL2-9                
1 63237U 25052AD  26068.70229538  .00018694  00000+0  67240-3 0  9992
2 63237  97.4057 324.3929 0007990 124.2475 235.9522 15.28633834 54816
